GSAT0101 (PRN E11)      
1 37846U 11060A   22250.37378261 -.00000088  00000+0  00000+0 0  9999
2 37846  57.0259  19.1130 0001944  73.3192 286.6977  1.70474821 67615
GSAT0102 (PRN E12)      
1 37847U 11060B   22249.71698719 -.00000084  00000+0  00000+0 0  9995
2 37847  57.0264  19.1306 0001195 351.5238  12.1687  1.70475196 67613
GSAT0103 (PRN E19)      
1 38857U 12055A   22249.23998968 -.00000010  00000+0  00000+0 0  9997
2 38857  55.1576 139.4780 0003011 266.9095  93.1177  1.70473767 61485
GSAT0104 (PRN E20)      
1 38858U 12055B   22249.20998691 -.00000010  00000+0  00000+0 0  9998
2 38858  55.1575 139.4804 0000369 222.0555 138.0032  1.70473943 61484
GSAT0201 (PRN E18)      
1 40128U 14050A   22250.13723344 -.00000077  00000+0  00000+0 0  9996
2 40128  50.2273 329.0286 1621931 127.0234 248.9527  1.85518882 52738
GSAT0202 (PRN E14)      
1 40129U 14050B   22249.31995955 -.00000075  00000+0  00000+0 0  9992
2 40129  50.2516 328.1239 1619132 127.8041 248.0025  1.85519508 54889
GSAT0203 (PRN E26)      
1 40544U 15017A   22249.56734962 -.00000084  00000+0  00000+0 0  9993
2 40544  56.8208  19.1571 0002983 217.4936 142.4840  1.70475929 45686
GSAT0204 (PRN E22)      
1 40545U 15017B   22249.82024005 -.00000085  00000+0  00000+0 0  9994
2 40545  56.8264  19.1628 0003327 198.2713 161.7144  1.70475534  8732
GSAT0205 (PRN E24)      
1 40889U 15045A   22250.17410958  .00000045  00000+0  00000+0 0  9997
2 40889  55.5743 259.7047 0003796 347.4246  12.6022  1.70473299 43506
GSAT0206 (PRN E30)      
1 40890U 15045B   22250.39487588  .00000043  00000+0  00000+0 0  9994
2 40890  55.5731 259.6944 0002922 318.3589  41.6540  1.70473268 43533
GSAT0209 (PRN E09)      
1 41174U 15079A   22249.98247695 -.00000010  00000+0  00000+0 0  9998
2 41174  55.1744 139.1617 0003154 327.0528  32.9925  1.70473927 41266
GSAT0208 (PRN E08)      
1 41175U 15079B   22250.20197097 -.00000009  00000+0  00000+0 0  9994
2 41175  55.1721 139.1541 0002354 336.9549  23.1005  1.70473885 41681
GSAT0211 (PRN E02)      
1 41549U 16030A   22249.73435683  .00000049  00000+0  00000+0 0  9992
2 41549  55.7194 259.6541 0004585 303.8508  56.1436  1.70474856 39152
GSAT0210 (PRN E01)      
1 41550U 16030B   22248.85379049  .00000055  00000+0  00000+0 0  9996
2 41550  55.7195 259.6799 0004679 276.3249  83.6619  1.70474877 39139
GSAT0207 (PRN E07)      
1 41859U 16069A   22248.51635190 -.00000010  00000+0  00000+0 0  9997
2 41859  54.8345 139.3636 0002961 310.8763  49.1585  1.70472553 35863
GSAT0212 (PRN E03)      
1 41860U 16069B   22248.36973935 -.00000009  00000+0  00000+0 0  9992
2 41860  54.8322 139.3652 0002577 341.5093  18.5418  1.70472588 36110
GSAT0213 (PRN E04)      
1 41861U 16069C   22249.90824799 -.00000010  00000+0  00000+0 0  9999
2 41861  54.8352 139.3277 0002968 274.2088  85.8213  1.70472725 36008
GSAT0214 (PRN E05)      
1 41862U 16069D   22250.05541234 -.00000010  00000+0  00000+0 0  9998
2 41862  54.8330 139.3180 0001465 284.5534  75.4950  1.70472565 36138
GSAT0215 (PRN E21)      
1 43055U 17079A   22248.78561766  .00000056  00000+0  00000+0 0  9994
2 43055  55.6957 259.5116 0004157 270.7267  89.2655  1.70474047 29452
GSAT0216 (PRN E25)      
1 43056U 17079B   22250.25094567  .00000045  00000+0  00000+0 0  9998
2 43056  55.6956 259.4710 0005820 275.4914  84.4777  1.70474159 29490
GSAT0217 (PRN E27)      
1 43057U 17079C   22250.47120171  .00000043  00000+0  00000+0 0  9992
2 43057  55.6934 259.4646 0005242 284.7009  75.2754  1.70474168 29483
GSAT0218 (PRN E31)      
1 43058U 17079D   22250.10466186  .00000046  00000+0  00000+0 0  9995
2 43058  55.6938 259.4721 0006283 272.4937  87.4705  1.70474108 29500
GSAT0221 (PRN E15)      
1 43564U 18060A   22248.83027914 -.00000080  00000+0  00000+0 0  9996
2 43564  57.2027  19.0132 0002469 246.2562 113.7185  1.70475881 25634
GSAT0222 (PRN E33)      
1 43565U 18060B   22249.63673035 -.00000084  00000+0  00000+0 0  9991
2 43565  57.2053  18.9920 0001835 254.7933 105.1843  1.70475881 25691
GSAT0219 (PRN E36)      
1 43566U 18060C   22248.68411063 -.00000079  00000+0  00000+0 0  9991
2 43566  57.2052  19.0197 0001468 249.3044 110.6809  1.70475896 25659
GSAT0220 (PRN E13)      
1 43567U 18060D   22248.90428027 -.00000080  00000+0  00000+0 0  9997
2 43567  57.2052  19.0142 0001792 241.5381 118.4442  1.70475519 25648
GSAT0223                
1 49809U 21116A   22249.34944118 -.00000082  00000+0  00000+0 0  9993
2 49809  57.1976  18.9002 0003368 164.4423 198.7983  1.70475740  4667
GSAT0224                
1 49810U 21116B   22249.73237575 -.00000084  00000+0  00000+0 0  9992
2 49810  57.1987  18.8878 0002990 155.4564 195.2760  1.70475715  4686
